NORAD_CAT_ID,OBJECT_NAME,OBJECT_TYPE,EPOCH,MEAN_MOTION,ECCENTRICITY,INCLINATION,RA_OF_ASC_NODE,ARG_OF_PERICENTER,MEAN_ANOMALY,BSTAR,MEAN_MOTION_DOT,MEAN_MOTION_DDOT,TLE_LINE0,TLE_LINE1,TLE_LINE2,SEMIMAJOR_AXIS,PERIOD,APOGEE,PERIGEE,DECAYED
52451.0,STARLINK-3870,PAYLOAD,2023-04-01 13:21:23,15.08837523,0.0001046,53.2145,206.6011,116.6699,243.44,0.00018008,2.579e-05,0.0,0 STARLINK-3870,1 52451U 22049A   23091.55652225  .00002579  00000-0  18008-3 0  9994,2 52451  53.2145 206.6011 0001046 116.6699 243.4400 15.08837523 50266,6917.888,95.438,540.477,539.029,0.0
52451.0,STARLINK-3870,PAYLOAD,2023-04-01 14:56:46,15.08838791,0.0001286,53.2165,206.3059,106.9488,253.1645,0.00059215,9.148e-05,0.0,0 STARLINK-3870,1 52451U 22049A   23091.62276356  .00009148  00000-0  59215-3 0  9993,2 52451  53.2165 206.3059 0001286 106.9488 253.1645 15.08838791 50112,6917.884,95.438,540.639,538.859,0.0
52451.0,STARLINK-3870,PAYLOAD,2023-04-02 13:12:10,15.08845459,0.000112,53.2152,202.1441,94.8019,265.3101,0.00050384,7.741e-05,0.0,0 STARLINK-3870,1 52451U 22049A   23092.55012599  .00007741  00000-0  50384-3 0  9998,2 52451  53.2152 202.1441 0001120  94.8019 265.3101 15.08845459 50255,6917.864,95.437,540.504,538.954,0.0
52451.0,STARLINK-3870,PAYLOAD,2023-04-02 14:47:33,15.08849239,0.0001274,53.2158,201.8467,89.3364,270.7774,0.00066517,0.00010317,0.0,0 STARLINK-3870,1 52451U 22049A   23092.61636521  .00010317  00000-0  66517-3 0  9990,2 52451  53.2158 201.8467 0001274  89.3364 270.7774 15.08849239 50422,6917.852,95.437,540.598,538.836,0.0
52451.0,STARLINK-3870,PAYLOAD,2023-04-03 00:19:53,15.08836826,0.0001321,53.2155,200.0625,71.5977,288.5159,0.00018003,2.578e-05,0.0,0 STARLINK-3870,1 52451U 22049A   23093.01380891  .00002578  00000-0  18003-3 0  9998,2 52451  53.2155 200.0625 0001321  71.5977 288.5159 15.08836826 50480,6917.89,95.438,540.669,538.841,0.0
52451.0,STARLINK-3870,PAYLOAD,2023-04-03 11:27:35,15.08823851,0.0001705,53.2159,197.9805,76.5304,283.5878,-0.0001131,-2.087e-05,0.0,0 STARLINK-3870,1 52451U 22049A   23093.47749715 -.00002087  00000-0 -11310-3 0  9993,2 52451  53.2159 197.9805 0001705  76.5304 283.5878 15.08823851 50558,6917.93,95.439,540.974,538.615,0.0
52451.0,STARLINK-3870,PAYLOAD,2023-04-04 00:10:40,15.08837305,0.000196,53.2164,195.6017,74.6602,285.4606,0.00019978,2.893e-05,0.0,0 STARLINK-3870,1 52451U 22049A   23094.00741887  .00002893  00000-0  19978-3 0  9996,2 52451  53.2164 195.6017 0001960  74.6602 285.4606 15.08837305 50635,6917.889,95.438,541.11,538.398,0.0
52451.0,STARLINK-3870,PAYLOAD,2023-04-04 11:18:22,15.08855543,0.0001472,53.2156,193.5201,68.3582,291.7567,0.00062491,9.676e-05,0.0,0 STARLINK-3870,1 52451U 22049A   23094.47109119  .00009676  00000-0  62491-3 0  9997,2 52451  53.2156 193.5201 0001472  68.3582 291.7567 15.08855543 50701,6917.833,95.437,540.716,538.68,0.0
52451.0,STARLINK-3870,PAYLOAD,2023-04-04 17:39:54,15.08869935,0.0001734,53.2146,192.3288,69.9667,290.1512,0.0010311,0.00016173,0.0,0 STARLINK-3870,1 52451U 22049A   23094.73604703  .00016173  00000-0  10311-2 0  9998,2 52451  53.2146 192.3288 0001734  69.9667 290.1512 15.08869935 50583,6917.789,95.436,540.853,538.454,0.0
52451.0,STARLINK-3870,PAYLOAD,2023-04-05 06:22:59,15.08839133,0.0001202,53.2166,189.9513,78.308,281.8047,-0.00028968,-4.895e-05,0.0,0 STARLINK-3870,1 52451U 22049A   23095.26596969 -.00004895  00000-0 -28968-3 0  9999,2 52451  53.2166 189.9513 0001202  78.3080 281.8047 15.08839133 50825,6917.883,95.438,540.58,538.917,0.0
52451.0,STARLINK-3870,PAYLOAD,2023-04-05 12:44:32,15.08844321,0.0001167,53.2156,188.7599,85.4102,274.7023,0.00033236,5.006e-05,0.0,0 STARLINK-3870,1 52451U 22049A   23095.53092965  .00005006  00000-0  33236-3 0  9993,2 52451  53.2156 188.7599 0001167  85.4102 274.7023 15.08844321 50706,6917.867,95.437,540.539,538.925,0.0
52451.0,STARLINK-3870,PAYLOAD,2023-04-06 09:24:33,15.08841409,0.0001306,53.2151,184.8953,83.1567,276.9573,0.00049004,7.52e-05,0.0,0 STARLINK-3870,1 52451U 22049A   23096.39205480  .00007520  00000-0  49004-3 0  9999,2 52451  53.2151 184.8953 0001306  83.1567 276.9573 15.08841409 50996,6917.876,95.437,540.645,538.838,0.0
52451.0,STARLINK-3870,PAYLOAD,2023-04-06 15:46:05,15.08848797,0.0001351,53.2152,183.7062,80.8756,279.2389,0.00057235,8.835e-05,0.0,0 STARLINK-3870,1 52451U 22049A   23096.65701285  .00008835  00000-0  57235-3 0  9997,2 52451  53.2152 183.7062 0001351  80.8756 279.2389 15.08848797 50875,6917.854,95.437,540.653,538.784,0.0
52451.0,STARLINK-3870,PAYLOAD,2023-04-07 12:26:06,15.08847747,0.0001483,53.2171,179.8428,100.9946,259.1213,0.00031547,4.737e-05,0.0,0 STARLINK-3870,1 52451U 22049A   23097.51813250  .00004737  00000-0  31547-3 0  9994,2 52451  53.2171 179.8428 0001483 100.9946 259.1213 15.08847747 51169,6917.857,95.437,540.748,538.696,0.0
52451.0,STARLINK-3870,PAYLOAD,2023-04-08 05:55:21,15.08839878,0.0001588,53.2182,176.5707,105.5342,254.5826,4.1572e-05,3.74e-06,0.0,0 STARLINK-3870,1 52451U 22049A   23098.24677302  .00000374  00000-0  41572-4 0  9994,2 52451  53.2182 176.5707 0001588 105.5342 254.5826 15.08839878 51279,6917.881,95.438,540.844,538.647,0.0
52451.0,STARLINK-3870,PAYLOAD,2023-04-08 10:41:30,15.08837868,0.0001412,53.2176,175.6784,102.8345,257.2805,-1.0218e-05,-4.51e-06,0.0,0 STARLINK-3870,1 52451U 22049A   23098.44549364 -.00000451  00000-0 -10218-4 0  9993,2 52451  53.2176 175.6784 0001412 102.8345 257.2805 15.08837868 51146,6917.887,95.438,540.729,538.775,0.0
52451.0,STARLINK-3870,PAYLOAD,2023-04-09 10:32:18,15.08823413,0.0001438,53.2166,171.2178,105.4055,254.7096,0.00057706,8.904e-05,0.0,0 STARLINK-3870,1 52451U 22049A   23099.43910410  .00008904  00000-0  57706-3 0  9998,2 52451  53.2166 171.2178 0001438 105.4055 254.7096 15.08823413 51458,6917.931,95.439,540.791,538.801,0.0
52451.0,STARLINK-3870,PAYLOAD,2023-04-09 21:39:59,15.08846407,0.0001295,53.2162,169.1354,113.5339,246.5789,-1.9723e-05,-6.02e-06,0.0,0 STARLINK-3870,1 52451U 22049A   23099.90277333 -.00000602  00000-0 -19723-4 0  9997,2 52451  53.2162 169.1354 0001295 113.5339 246.5789 15.08846407 51526,6917.861,95.437,540.622,538.83,0.0
52451.0,STARLINK-3870,PAYLOAD,2023-04-10 05:36:55,15.08835449,0.0001308,53.2162,167.6483,88.1359,271.9783,0.00012572,1.713e-05,0.0,0 STARLINK-3870,1 52451U 22049A   23100.23398034  .00001713  00000-0  12572-3 0  9994,2 52451  53.2162 167.6483 0001308  88.1359 271.9783 15.08835449 51571,6917.894,95.438,540.664,538.854,0.0
52451.0,STARLINK-3870,PAYLOAD,2023-04-10 21:30:46,15.08846201,0.0001407,53.2166,164.6746,85.0953,275.02,0.00015667,2.207e-05,0.0,0 STARLINK-3870,1 52451U 22049A   23100.89637282  .00002207  00000-0  15667-3 0  9994,2 52451  53.2166 164.6746 0001407  85.0953 275.0200 15.08846201 51511,6917.861,95.437,540.7,538.753,0.0
52451.0,STARLINK-3870,PAYLOAD,2023-04-11 11:49:14,15.0885323,0.0001438,53.2154,161.9982,84.8524,275.2632,0.00021906,3.201e-05,0.0,0 STARLINK-3870,1 52451U 22049A   23101.49252813  .00003201  00000-0  21906-3 0  9992,2 52451  53.2154 161.9982 0001438  84.8524 275.2632 15.08853230 51606,6917.84,95.437,540.7,538.71,0.0
52451.0,STARLINK-3870,PAYLOAD,2023-04-11 21:21:33,15.0884644,0.0001473,53.2156,160.2147,78.5466,281.5691,8.7659e-05,1.108e-05,0.0,0 STARLINK-3870,1 52451U 22049A   23101.88997033  .00001108  00000-0  87659-4 0  9997,2 52451  53.2156 160.2147 0001473  78.5466 281.5691 15.08846440 51663,6917.861,95.437,540.745,538.707,0.0
52451.0,STARLINK-3870,PAYLOAD,2023-04-12 10:04:38,15.08842837,0.0001683,53.215,157.8349,85.5712,274.5472,4.6676e-05,4.55e-06,0.0,0 STARLINK-3870,1 52451U 22049A   23102.41989256  .00000455  00000-0  46676-4 0  9993,2 52451  53.2150 157.8349 0001683  85.5712 274.5472 15.08842837 51900,6917.872,95.437,540.901,538.572,0.0
52451.0,STARLINK-3870,PAYLOAD,2023-04-12 13:15:24,15.08856701,0.0001399,53.2154,157.2408,97.2567,262.8584,0.00023792,3.502e-05,0.0,0 STARLINK-3870,1 52451U 22049A   23102.55236381  .00003502  00000-0  23792-3 0  9991,2 52451  53.2154 157.2408 0001399  97.2567 262.8584 15.08856701 51769,6917.829,95.436,540.662,538.727,0.0
52451.0,STARLINK-3870,PAYLOAD,2023-04-12 14:50:47,15.08857422,0.0001315,53.215,156.943,90.0685,270.0458,0.0002457,3.626e-05,0.0,0 STARLINK-3870,1 52451U 22049A   23102.61860291  .00003626  00000-0  24570-3 0  9993,2 52451  53.2150 156.9430 0001315  90.0685 270.0458 15.08857422 51937,6917.827,95.436,540.602,538.782,0.0
52451.0,STARLINK-3870,PAYLOAD,2023-04-13 09:55:26,15.08834065,0.000159,53.2151,153.377,85.3575,274.7598,-3.5461e-05,-8.52e-06,0.0,0 STARLINK-3870,1 52451U 22049A   23103.41349784 -.00000852  00000-0 -35461-4 0  9993,2 52451  53.2151 153.3770 0001590  85.3575 274.7598 15.08834065 51895,6917.899,95.438,540.863,538.664,0.0
52451.0,STARLINK-3870,PAYLOAD,2023-04-13 14:41:35,15.08836129,0.0001576,53.2144,152.4831,82.5876,277.5295,1.2752e-06,-2.68e-06,0.0,0 STARLINK-3870,1 52451U 22049A   23103.61221733 -.00000268  00000-0  12752-5 0  9997,2 52451  53.2144 152.4831 0001576  82.5876 277.5295 15.08836129 52082,6917.892,95.438,540.847,538.667,0.0
52451.0,STARLINK-3870,PAYLOAD,2023-04-14 09:46:13,15.08846308,0.0001552,53.2148,148.9135,84.7991,275.3178,0.00010904,1.448e-05,0.0,0 STARLINK-3870,1 52451U 22049A   23104.40709533  .00001448  00000-0  10904-3 0  9999,2 52451  53.2148 148.9135 0001552  84.7991 275.3178 15.08846308 52041,6917.861,95.437,540.8,538.652,0.0
52451.0,STARLINK-3870,PAYLOAD,2023-04-14 19:18:31,15.08845962,0.0001496,53.2144,147.1289,84.7966,275.3197,0.00011987,1.621e-05,0.0,0 STARLINK-3870,1 52451U 22049A   23104.80453572  .00001621  00000-0  11987-3 0  9997,2 52451  53.2144 147.1289 0001496  84.7966 275.3197 15.08845962 52267,6917.862,95.437,540.762,538.692,0.0
52451.0,STARLINK-3870,PAYLOAD,2023-04-15 06:26:14,15.08840776,0.0001536,53.215,145.0481,87.2996,272.8171,0.0001433,1.993e-05,0.0,0 STARLINK-3870,1 52451U 22049A   23105.26821950  .00001993  00000-0  14330-3 0  9994,2 52451  53.2150 145.0481 0001536  87.2996 272.8171 15.08840776 52331,6917.878,95.438,540.806,538.68,0.0
